{"type":"FeatureCollection","features":[{"type":"Feature","id":3079407,"properties":{"name":"Pra\u00e7a de Gomes Teixeira","wikidata":"Q10353459","gender":null,"source":null,"details":null},"geometry":{"type":"MultiLineString","coordinates":[[[-8.6152786,41.1468206],[-8.6152728,41.1468469],[-8.6152165,41.1470987],[-8.6152156,41.14711],[-8.6152192,41.14713],[-8.6152246,41.1471442],[-8.61525,41.1471674],[-8.6152661,41.1471775],[-8.6152836,41.1471821],[-8.6157899,41.1472388],[-8.6159099,41.1472522],[-8.6159393,41.1472503],[-8.615997,41.1472214],[-8.6160311,41.1471923],[-8.6160245,41.1471416],[-8.6160154,41.1470764],[-8.6160374,41.1469115],[-8.6159939,41.1469063],[-8.6159505,41.1469011],[-8.6159071,41.146896],[-8.6158637,41.1468908],[-8.6158203,41.1468856],[-8.6157769,41.1468804],[-8.6157746,41.1468916],[-8.6157321,41.1468865],[-8.6156896,41.1468814],[-8.6156472,41.1468763],[-8.6156047,41.1468713],[-8.6156071,41.1468601],[-8.6155611,41.1468546],[-8.6155152,41.1468491],[-8.6154692,41.1468436],[-8.6154233,41.1468381],[-8.6153773,41.1468326],[-8.6153314,41.1468271],[-8.615305,41.1468239],[-8.6152786,41.1468206]]]}},{"type":"Feature","id":3081042,"properties":{"name":"Pra\u00e7a de Carlos Alberto","wikidata":null,"gender":"M","source":"wikidata","details":{"wikidata":"Q181261","person":true,"gender":"M","labels":{"en":{"language":"en","value":"Carlo Alberto I of Sardinia"}},"descriptions":{"en":{"language":"en","value":"King of Sardinia from 1831 to 1849"}},"nicknames":[],"birth":1798,"death":1849,"sitelinks":{"enwiki":{"site":"enwiki","title":"Charles Albert of Sardinia","badges":[],"url":"https:\/\/en.wikipedia.org\/wiki\/Charles_Albert_of_Sardinia"}},"image":"Carlo Alberto by Cavalleri.jpg"}},"geometry":{"type":"MultiLineString","coordinates":[[[-8.6156422,41.148648],[-8.6156366,41.1486691],[-8.6156397,41.1486925],[-8.6156466,41.1487148],[-8.6156572,41.1487368],[-8.6156721,41.1487538],[-8.6156952,41.1487752],[-8.6157262,41.1487927],[-8.6157571,41.1488045],[-8.6157875,41.14881],[-8.615818,41.1488128],[-8.6158422,41.1488128],[-8.6158825,41.1488083],[-8.6160553,41.148789],[-8.6160755,41.148783],[-8.6160956,41.1487761],[-8.6161135,41.1487679],[-8.6161261,41.1487568],[-8.6161284,41.1487539],[-8.6161371,41.148743],[-8.6161416,41.1487269],[-8.6161462,41.1487126],[-8.6161449,41.1486956],[-8.6161117,41.1486139],[-8.6159802,41.1482898],[-8.6159708,41.1482763],[-8.6159545,41.1482664],[-8.615936,41.1482583],[-8.6159237,41.1482557],[-8.6159112,41.148253],[-8.6158924,41.148251],[-8.6158751,41.1482517],[-8.6158524,41.1482531],[-8.6158318,41.1482624],[-8.6158151,41.1482743],[-8.6158046,41.1482884],[-8.6156588,41.1486094],[-8.6156505,41.1486277],[-8.6156422,41.148648]]]}},{"type":"Feature","id":3223720,"properties":{"name":"Cais da Estiva","wikidata":null,"gender":null,"source":null,"details":null},"geometry":{"type":"MultiLineString","coordinates":[[[-8.6134793,41.1403819],[-8.6134997,41.140379],[-8.6135203,41.1403771],[-8.6135738,41.140372],[-8.6136395,41.1403657],[-8.6136708,41.1403627],[-8.6137658,41.1403556],[-8.6138347,41.1403506],[-8.6138921,41.1403464],[-8.6140841,41.1403323],[-8.6141036,41.1403284],[-8.6141142,41.1403263],[-8.6141682,41.1403156],[-8.6142105,41.1403071],[-8.6142201,41.1403052],[-8.6142472,41.1402998],[-8.6142848,41.1402923],[-8.6144216,41.140265],[-8.6144531,41.1402546],[-8.6145043,41.1402376],[-8.6145929,41.1402023],[-8.6145841,41.1401895],[-8.6145794,41.1401827],[-8.6150543,41.1400394],[-8.6152269,41.1400045],[-8.6154249,41.1399726],[-8.615242,41.1399898],[-8.615239,41.1399795],[-8.615236,41.139969],[-8.615214,41.1399725],[-8.6152095,41.1399608],[-8.6150397,41.1399947],[-8.6150442,41.140007],[-8.6146668,41.1401033],[-8.6146254,41.1400913],[-8.6146114,41.1400804],[-8.6146007,41.1400719],[-8.6145913,41.1400646],[-8.6144252,41.1400597],[-8.6140634,41.1400633],[-8.6138769,41.1400652],[-8.6136547,41.1400899],[-8.6136375,41.1400919],[-8.613613,41.1400946],[-8.6136108,41.1401827],[-8.6136101,41.1402129],[-8.613593,41.1402444],[-8.6135502,41.1402742],[-8.6134529,41.1402895],[-8.6134641,41.1403301],[-8.6134746,41.1403657],[-8.6134793,41.1403819]]]}},{"type":"Feature","id":3302858,"properties":{"name":"Cais da Alf\u00e2ndega","wikidata":null,"gender":"-","source":"wikidata","details":{"wikidata":"Q9603263","person":false,"gender":null,"labels":{"en":{"language":"en","value":"Alf\u00e2ndega Nova"}},"descriptions":{"en":{"language":"en","value":"cultural heritage monument in Porto, Portugal"}},"nicknames":[],"birth":null,"death":null,"sitelinks":[],"image":"Porto - Alf\u00e2ndega.jpg"}},"geometry":{"type":"MultiLineString","coordinates":[[[-8.6223637,41.1431293],[-8.6237645,41.1440027],[-8.6240239,41.1441645],[-8.6240781,41.1442353],[-8.6241405,41.1442572],[-8.6247983,41.1445229],[-8.6247824,41.1445527],[-8.6247706,41.144575],[-8.6225911,41.1438731],[-8.6228889,41.1436064],[-8.6229425,41.1436428],[-8.6229936,41.1435988],[-8.6221766,41.1430965],[-8.6221915,41.1430833],[-8.6215928,41.1427023],[-8.6215648,41.1427283],[-8.6207439,41.1422115],[-8.6207345,41.1422211],[-8.6206453,41.1421623],[-8.6206792,41.1421296],[-8.6207266,41.142084],[-8.620849,41.142163],[-8.6214222,41.142527],[-8.6216166,41.1426531],[-8.6216342,41.1426377],[-8.6216563,41.1426184],[-8.621958,41.142811],[-8.6222196,41.1429779],[-8.6222007,41.1429946],[-8.6221814,41.1430114],[-8.6223637,41.1431293]]]}},{"type":"Feature","id":3792993,"properties":{"name":"Pra\u00e7a da Trindade","wikidata":null,"gender":"-","source":"wikidata","details":{"wikidata":"Q37090","person":false,"gender":null,"labels":{"en":{"language":"en","value":"Holy Trinity"}},"descriptions":{"en":{"language":"en","value":"Christian conception of God as consisting of three persons (hypostases) \u2014 the Father, the Son, and the Holy Spirit \u2014 sharing the same substance (ousia)"}},"nicknames":[],"birth":null,"death":null,"sitelinks":{"enwiki":{"site":"enwiki","title":"Trinity","badges":[],"url":"https:\/\/en.wikipedia.org\/wiki\/Trinity"}},"image":"Giovanni Battista Tiepolo 016.jpg"}},"geometry":{"type":"MultiLineString","coordinates":[[[-8.6108324,41.150333],[-8.6108114,41.1503636],[-8.6108042,41.1503776],[-8.6107923,41.1504111],[-8.6107923,41.1504375],[-8.6107923,41.1504737],[-8.610803,41.1505721],[-8.6108271,41.1507095],[-8.6108325,41.1507746],[-8.6108315,41.1507926],[-8.610831,41.1508016],[-8.6108305,41.1508103],[-8.6108298,41.1508231],[-8.6108191,41.150865],[-8.6107993,41.1509043],[-8.6107837,41.1509232],[-8.6107694,41.1509178],[-8.6107551,41.1509124],[-8.6107513,41.1509108],[-8.6107547,41.1509068],[-8.610757,41.1509024],[-8.6107584,41.1508977],[-8.6107586,41.1508929],[-8.6107578,41.1508882],[-8.6107559,41.1508837],[-8.6107529,41.1508794],[-8.6107491,41.1508757],[-8.6106655,41.1508336],[-8.6106707,41.1508266],[-8.6106744,41.1508191],[-8.6106765,41.1508112],[-8.6106768,41.1508032],[-8.6106754,41.1507953],[-8.6106723,41.1507876],[-8.6106676,41.1507804],[-8.6106615,41.1507738],[-8.610654,41.1507681],[-8.6106454,41.1507634],[-8.6105837,41.1507326],[-8.6105214,41.1507016],[-8.6105124,41.1506977],[-8.6105026,41.1506949],[-8.6104925,41.1506933],[-8.6104821,41.150693],[-8.6104717,41.1506938],[-8.6104617,41.1506959],[-8.6104522,41.1506992],[-8.6104435,41.1507035],[-8.6104358,41.1507088],[-8.6104293,41.150715],[-8.6103378,41.150669],[-8.6103329,41.1506669],[-8.6103277,41.1506654],[-8.6103222,41.1506646],[-8.6103165,41.1506644],[-8.610311,41.1506649],[-8.6103056,41.1506661],[-8.6103005,41.1506679],[-8.6102958,41.1506702],[-8.6102917,41.1506732],[-8.6102883,41.1506765],[-8.6102831,41.1506824],[-8.6102649,41.1506734],[-8.6102469,41.1506645],[-8.6102877,41.1506234],[-8.6103202,41.150588],[-8.6103444,41.1505517],[-8.6103605,41.1505194],[-8.6103766,41.150485],[-8.61039,41.1504466],[-8.6103995,41.1504019],[-8.6104038,41.1503467],[-8.6104062,41.1503163],[-8.610405,41.1502854],[-8.6104328,41.1502808],[-8.6104474,41.150278],[-8.6104614,41.1503483],[-8.6104582,41.1504216],[-8.6107448,41.1504462],[-8.6107595,41.1503736],[-8.6108006,41.1503187],[-8.6108164,41.1503258],[-8.6108324,41.150333]]]}},{"type":"Feature","id":5424583,"properties":{"name":"Largo dos L\u00f3ios","wikidata":null,"gender":null,"source":null,"details":null},"geometry":{"type":"MultiLineString","coordinates":[[[-8.6120971,41.1454056],[-8.6121708,41.1454978],[-8.6122548,41.1456041],[-8.6122608,41.1456117],[-8.6122731,41.1456607],[-8.6122727,41.1458828],[-8.61229,41.1459112],[-8.6123062,41.1459249],[-8.6123433,41.145936],[-8.6123917,41.145936],[-8.6124335,41.1459319],[-8.6124588,41.1459289],[-8.6124582,41.1459226],[-8.6124575,41.1459156],[-8.6124354,41.1457689],[-8.6124296,41.1457284],[-8.6124228,41.1456808],[-8.6124914,41.1455394],[-8.6124443,41.145501],[-8.6123938,41.1454663],[-8.6123481,41.145432],[-8.6123037,41.1453988],[-8.6121963,41.1453183],[-8.6121882,41.1453255],[-8.6120971,41.1454056]]]}},{"type":"Feature","id":7041020,"properties":{"name":"Pra\u00e7a do Ex\u00e9rcito Libertador","wikidata":null,"gender":null,"source":null,"details":null},"geometry":null},{"type":"Feature","id":7077281,"properties":{"name":"Escadas Carolina Mich\u00e4elis de Vasconcelos","wikidata":null,"gender":null,"source":null,"details":null},"geometry":{"type":"MultiLineString","coordinates":[[[-8.6225166,41.1581109],[-8.6223136,41.1579983]],[[-8.6223136,41.1579983],[-8.6222587,41.1579678],[-8.6222153,41.1581088],[-8.6222565,41.1581149],[-8.6222496,41.1581362],[-8.6222019,41.1583117],[-8.6221561,41.1583043],[-8.6220889,41.1585269],[-8.6221055,41.1585293],[-8.622131,41.1585335],[-8.6221461,41.1584753],[-8.6224305,41.1585234],[-8.6224132,41.1585794],[-8.6224361,41.1585831]],[[-8.6224361,41.1585831],[-8.6224643,41.1585878],[-8.6225317,41.158369],[-8.6224729,41.1583581],[-8.6225289,41.158184]],[[-8.6225289,41.158184],[-8.6225357,41.1581628],[-8.6225876,41.1581713],[-8.6226063,41.1581607],[-8.6225166,41.1581109]]]}},{"type":"Feature","id":7339199,"properties":{"name":"Largo do Cativo","wikidata":null,"gender":null,"source":null,"details":null},"geometry":{"type":"MultiLineString","coordinates":[[[-8.6098633,41.144082],[-8.609861,41.1440836],[-8.6098219,41.1441119],[-8.6097781,41.1441456],[-8.6097156,41.144199],[-8.6096586,41.144268],[-8.6096216,41.1443127],[-8.6095892,41.1443557],[-8.6095574,41.144398],[-8.6095522,41.1443965],[-8.6095503,41.1443847],[-8.6095463,41.144372],[-8.6095381,41.1443583],[-8.6095235,41.1443338],[-8.6095089,41.1443093],[-8.6094945,41.1442851],[-8.6094806,41.1442618],[-8.6094689,41.1442422],[-8.6094546,41.1442183],[-8.6094517,41.1442094],[-8.6094546,41.1442008],[-8.609463,41.1441934],[-8.6094721,41.1441892],[-8.6095038,41.1441774],[-8.6095404,41.1441638],[-8.6095807,41.1441505],[-8.609617,41.1441382],[-8.6096594,41.1441246],[-8.6096976,41.1441115],[-8.6097431,41.1440969],[-8.6097927,41.1440801],[-8.6098463,41.144062],[-8.6098633,41.144082]]]}},{"type":"Feature","id":9491850,"properties":{"name":"Quinta da Prelada","wikidata":"Q54793533","gender":null,"source":null,"details":null},"geometry":{"type":"MultiLineString","coordinates":[[[-8.6306013,41.170682],[-8.6305973,41.1706829],[-8.630752,41.1710593],[-8.6307731,41.1711106],[-8.6307874,41.1711455],[-8.6311157,41.171893],[-8.6311512,41.1719566],[-8.6312268,41.1719605],[-8.6323973,41.1717213],[-8.6323899,41.1716996],[-8.632268,41.171344],[-8.6321115,41.1713223],[-8.6320557,41.171319],[-8.6319573,41.1713098],[-8.6319116,41.1713018],[-8.6319051,41.1712975],[-8.6316613,41.1709058],[-8.6316419,41.1708492],[-8.6316287,41.1707915],[-8.63167,41.1707648],[-8.6316676,41.1706497],[-8.6316423,41.1705948],[-8.6316301,41.1705521],[-8.6316504,41.1703663],[-8.6316486,41.1703621],[-8.6316426,41.1703594],[-8.6315528,41.1703594],[-8.6314414,41.1703782],[-8.6314073,41.1703839],[-8.6313867,41.1703843],[-8.6313389,41.1703739],[-8.6313036,41.1703619],[-8.6312939,41.1703585],[-8.6312719,41.1703595],[-8.6312655,41.1703471],[-8.6312503,41.1703154],[-8.6311064,41.1700211],[-8.6308984,41.1700835],[-8.63072,41.1701371],[-8.630516,41.1701984],[-8.6304616,41.1702426],[-8.6304537,41.1702573],[-8.63045,41.1702717],[-8.6304502,41.1702887],[-8.6306013,41.170682]],[[-8.6277076,41.1748507],[-8.6277034,41.1748617],[-8.6276945,41.1748708],[-8.6276802,41.1748774],[-8.6276879,41.1748943],[-8.6276722,41.1748989],[-8.6278816,41.1756913],[-8.6281041,41.1758188],[-8.628329,41.1758107],[-8.6286569,41.1757989],[-8.6293202,41.1757142],[-8.6295631,41.1756866],[-8.6298107,41.1756611],[-8.6301314,41.1756245],[-8.6306477,41.1755681],[-8.6312861,41.1754724],[-8.6317002,41.1754077],[-8.6324847,41.1753032],[-8.6322635,41.1747678],[-8.6331955,41.1746132],[-8.632992,41.1740938],[-8.6329772,41.174056],[-8.6329912,41.1740529],[-8.6330275,41.174045],[-8.633019,41.1740159],[-8.6330211,41.1739936],[-8.6330113,41.1737367],[-8.6330051,41.1736722],[-8.6329255,41.173167],[-8.6328553,41.1729258],[-8.6327863,41.1726887],[-8.6326963,41.1723028],[-8.6326759,41.1722682],[-8.6326618,41.1722287],[-8.6325599,41.1720909],[-8.6324779,41.1720663],[-8.6298909,41.1726373],[-8.6298501,41.1725977],[-8.629816,41.1726048],[-8.6297848,41.1726113],[-8.6297809,41.1726569],[-8.6297269,41.1726681],[-8.6297516,41.1727563],[-8.6294734,41.1727614],[-8.6293085,41.1727826],[-8.6284134,41.1729887],[-8.6267955,41.1732996],[-8.6272183,41.1740534],[-8.6275518,41.1746481],[-8.6276005,41.1747469],[-8.6276152,41.1747437],[-8.6276233,41.1747604],[-8.6276352,41.1747577],[-8.627651,41.1747579],[-8.6276662,41.1747621],[-8.6276776,41.174769],[-8.6276867,41.1747815],[-8.6276942,41.174808],[-8.6277042,41.1748363],[-8.6277076,41.1748507]]]}},{"type":"Feature","id":9724105,"properties":{"name":"Igreja e Recolhimento de Nossa Senhora do Patroc\u00ednio;Igreja e Recolhimento do Ferro","wikidata":null,"gender":null,"source":null,"details":null},"geometry":null},{"type":"Feature","id":12214702,"properties":{"name":"Bairro do Viso","wikidata":null,"gender":null,"source":null,"details":null},"geometry":{"type":"MultiLineString","coordinates":[[[-8.6441955,41.178616],[-8.6440481,41.1785427],[-8.6438436,41.1784323],[-8.6433402,41.1779874],[-8.64327,41.1779205],[-8.6430772,41.1777368],[-8.6430142,41.1776768]],[[-8.6430142,41.1776768],[-8.6431682,41.1775882],[-8.6433293,41.1774729],[-8.643508,41.1773573],[-8.6440144,41.1770295]],[[-8.6440144,41.1770295],[-8.6439914,41.1769799],[-8.6439358,41.176962],[-8.6441101,41.1768508],[-8.6442702,41.1767423],[-8.6445064,41.1765891],[-8.6446525,41.1764608],[-8.6448407,41.1763641]],[[-8.6448407,41.1763641],[-8.6450724,41.1762699],[-8.6451119,41.1762653],[-8.6451245,41.1762638],[-8.6451815,41.1762685],[-8.6452993,41.1763521],[-8.6453996,41.1763749],[-8.6454906,41.1764744],[-8.6455664,41.1765572],[-8.6452928,41.1765265],[-8.6451387,41.1765223],[-8.6451142,41.1765384],[-8.6450799,41.1765591],[-8.6449867,41.1766155],[-8.6449982,41.1766261],[-8.6450332,41.1766583],[-8.6451015,41.1767213],[-8.6451647,41.1767795],[-8.6452552,41.176863],[-8.6453545,41.1769545],[-8.6454161,41.1770113],[-8.6455504,41.1771293],[-8.6456166,41.1771875],[-8.6457431,41.1772986],[-8.6458248,41.1773704],[-8.6458397,41.1773835],[-8.6459584,41.1774576],[-8.6459946,41.1774802],[-8.6460324,41.1775038],[-8.646041,41.1775513],[-8.6463494,41.1775428],[-8.646467,41.1775395],[-8.6465468,41.17754],[-8.6467363,41.1775282],[-8.6467541,41.1775437],[-8.6467874,41.1775769],[-8.6468333,41.1776228],[-8.6469107,41.1777],[-8.6471757,41.1779506],[-8.6472225,41.1779948],[-8.6473372,41.1781032],[-8.6473723,41.1781364],[-8.6474793,41.1782376],[-8.6478094,41.178552],[-8.6478152,41.1786252],[-8.6478173,41.1786515],[-8.648283,41.1790946],[-8.6483579,41.1791313],[-8.6484317,41.1791797],[-8.6484739,41.1792129],[-8.6485382,41.1792776],[-8.6492571,41.1799516],[-8.6492326,41.1800053],[-8.6492835,41.1800457],[-8.649195,41.1801088],[-8.6490905,41.1801833],[-8.6490593,41.1802056],[-8.6490131,41.1802437],[-8.6489979,41.1802562],[-8.6489216,41.1803192],[-8.6489035,41.1803341],[-8.6488398,41.1803866],[-8.6488285,41.1803971],[-8.6487913,41.1804295],[-8.6487421,41.1804779],[-8.6486769,41.1805462],[-8.6486524,41.1805748],[-8.6486102,41.1806241],[-8.6485876,41.1806505],[-8.6485668,41.1806738],[-8.6486355,41.1807082],[-8.6486684,41.1807246]],[[-8.6486684,41.1807246],[-8.6486164,41.1808066],[-8.6483644,41.180825],[-8.6483124,41.1808228],[-8.6481682,41.1808155],[-8.6479604,41.1809275],[-8.6477554,41.181081],[-8.6477192,41.1810583],[-8.6476892,41.1810754],[-8.6475823,41.1811364],[-8.6473505,41.1812687],[-8.6473418,41.1812737],[-8.6466052,41.1816941],[-8.6464098,41.1818076],[-8.6463819,41.1817629],[-8.6463078,41.1815722],[-8.6463003,41.1815528],[-8.6462166,41.1813826],[-8.646197,41.1813429],[-8.6461835,41.1813153],[-8.6461465,41.1812421],[-8.6460929,41.1811351],[-8.646053,41.1810553],[-8.6460393,41.1810281],[-8.6458853,41.1807212],[-8.645812,41.1806839],[-8.6457054,41.1806297],[-8.6457599,41.1805278],[-8.6455064,41.1804789],[-8.6452749,41.1804391],[-8.6450419,41.1803852],[-8.645016,41.1803533],[-8.6450593,41.1802727],[-8.6451876,41.1800337],[-8.6451057,41.1798723],[-8.6449854,41.1798786],[-8.6449359,41.1798812],[-8.6446859,41.1796593],[-8.6447326,41.1796455],[-8.6445879,41.1795258],[-8.644495,41.1794418],[-8.6444102,41.1793694],[-8.6443162,41.1792972],[-8.6442495,41.179246],[-8.6440165,41.1790533],[-8.6438057,41.178879],[-8.6438687,41.1787474],[-8.6439055,41.178725],[-8.6440293,41.1786497],[-8.644096,41.1786464],[-8.6441758,41.178622],[-8.6441955,41.178616]]]}},{"type":"Feature","id":12236986,"properties":{"name":"Bairro das Campinas","wikidata":null,"gender":null,"source":null,"details":null},"geometry":{"type":"MultiLineString","coordinates":[[[-8.6505262,41.1689158],[-8.6507604,41.168959],[-8.6509796,41.1689989],[-8.6510109,41.168908],[-8.6511642,41.1683706],[-8.6511682,41.1683567],[-8.6512967,41.1682915],[-8.6515821,41.168124],[-8.6518448,41.1681672],[-8.6518632,41.1681705],[-8.6518555,41.1681978],[-8.6524546,41.1682908],[-8.6525298,41.1683025],[-8.6525267,41.1683127],[-8.652504,41.168389],[-8.6528993,41.1684525],[-8.6532621,41.1685108],[-8.6533543,41.1685256],[-8.6533,41.1687174],[-8.6531777,41.169149],[-8.6531626,41.1692024],[-8.6531579,41.1692192],[-8.6531418,41.1692773],[-8.6531379,41.1692914],[-8.6531111,41.1693881],[-8.6531717,41.1693958],[-8.6532324,41.1694036],[-8.6532656,41.1694107],[-8.6533651,41.1694319],[-8.6534272,41.1694453],[-8.6536488,41.1695447],[-8.6545828,41.1699458],[-8.6547668,41.1700239],[-8.6550216,41.170132],[-8.655572,41.1703697],[-8.6558376,41.1704845],[-8.6559968,41.1705605],[-8.6561073,41.1706133],[-8.6560435,41.1706847],[-8.6558869,41.1708601],[-8.655602,41.1711887],[-8.6553548,41.1714683],[-8.6549503,41.1713973]],[[-8.6524621,41.1706539],[-8.6521638,41.1707248],[-8.6520004,41.1708198],[-8.6519027,41.1707258],[-8.6518626,41.1706953],[-8.6517654,41.1706563],[-8.6516939,41.1706309],[-8.6515967,41.1706124],[-8.6515315,41.1705752],[-8.6514652,41.1705283],[-8.6514204,41.17049],[-8.6513706,41.1704502],[-8.65132,41.170414],[-8.6512619,41.1703786],[-8.6511919,41.1703251],[-8.6511197,41.1702762],[-8.6510524,41.1702213],[-8.6509902,41.1701625],[-8.6509275,41.1701027],[-8.6508909,41.1700574],[-8.6507965,41.1699529],[-8.6507039,41.170001],[-8.6506914,41.169989],[-8.65063,41.1699301],[-8.6506742,41.1699107],[-8.6506455,41.1698712],[-8.6505595,41.1697628],[-8.6505028,41.1696909],[-8.6504321,41.1696329],[-8.6503572,41.1695695],[-8.6502665,41.1694958],[-8.6502205,41.1694584],[-8.6500541,41.1693387],[-8.6499795,41.1692799],[-8.6504193,41.168987],[-8.6505262,41.1689158]],[[-8.6549503,41.1713973],[-8.6549364,41.1714854],[-8.6549186,41.1716077],[-8.6548569,41.172034],[-8.6547833,41.1719722],[-8.6545978,41.1718634],[-8.6545206,41.1718092],[-8.6544812,41.1717815],[-8.6544082,41.1717302],[-8.6543381,41.171681],[-8.654334,41.1716781],[-8.6542883,41.1716477],[-8.654196,41.1715872],[-8.6541417,41.1715512],[-8.654061,41.1714979],[-8.6539879,41.1714502],[-8.6539118,41.1714046],[-8.6537703,41.1713072],[-8.6537057,41.1712683],[-8.6535566,41.171166],[-8.653465,41.1711046],[-8.653345,41.1710243],[-8.6534291,41.1709435],[-8.6535239,41.1709494],[-8.6536258,41.1706076],[-8.6536574,41.1704975],[-8.6535032,41.1704141],[-8.6532026,41.1703725],[-8.6531693,41.1703675],[-8.6527572,41.1706183],[-8.6524621,41.1706539]]]}},{"type":"Feature","id":12613438,"properties":{"name":"Bairro da Fonte da Moura","wikidata":null,"gender":null,"source":null,"details":null},"geometry":{"type":"MultiLineString","coordinates":[[[-8.6618852,41.1715612],[-8.6618014,41.1716039],[-8.6615141,41.1717504],[-8.6614993,41.1717346],[-8.6612859,41.1715084],[-8.6608792,41.1710583],[-8.6608813,41.1710292],[-8.6607103,41.1708463],[-8.660887,41.1707549],[-8.6609515,41.1706518],[-8.6609248,41.1706223],[-8.660832,41.1705199],[-8.6607334,41.1704329],[-8.6606705,41.1703775],[-8.6603798,41.1703949],[-8.6603608,41.1703935],[-8.6603466,41.1703881],[-8.6600285,41.1701754],[-8.6600099,41.1701641],[-8.6598506,41.1700676],[-8.6597093,41.1699972],[-8.6595264,41.1699199],[-8.6593563,41.1698789],[-8.6593795,41.1698514],[-8.6595143,41.1696911],[-8.6595622,41.1696341],[-8.6592713,41.1695023],[-8.6592174,41.1694124],[-8.6592017,41.1693176],[-8.6592146,41.1692174],[-8.6592523,41.1691279],[-8.6592994,41.1691033],[-8.6603672,41.1686111],[-8.6604774,41.1685603],[-8.6606122,41.1685071],[-8.6607419,41.1684478],[-8.6612346,41.1685436],[-8.6618333,41.169369],[-8.6619123,41.1694816],[-8.662437,41.1701649],[-8.6626225,41.1704274],[-8.6627561,41.1705886],[-8.6628442,41.1706679],[-8.663054,41.170805],[-8.6631293,41.1708489],[-8.6631683,41.1708715],[-8.6631343,41.1710634],[-8.6630761,41.1710892],[-8.6621474,41.1715071],[-8.6620694,41.1715186],[-8.6619889,41.1715202],[-8.6619119,41.1715134],[-8.6618402,41.1715008],[-8.6618852,41.1715612]]]}},{"type":"Feature","id":13585759,"properties":{"name":"Bairro Marechal Gomes da Costa","wikidata":null,"gender":null,"source":null,"details":null},"geometry":{"type":"MultiLineString","coordinates":[[[-8.665198,41.1613271],[-8.6644628,41.16164],[-8.6643757,41.1616606],[-8.6630251,41.1619797],[-8.662884,41.1620131],[-8.6628366,41.1619394],[-8.6626467,41.1616436],[-8.6625989,41.1615752],[-8.6622466,41.1610714],[-8.662195,41.1610039],[-8.6620569,41.1608232],[-8.6619676,41.1606903],[-8.6618252,41.1604855],[-8.6618008,41.160448],[-8.6616572,41.160228],[-8.6610685,41.1604483],[-8.6608029,41.1605529],[-8.66076,41.1605657],[-8.6605924,41.1606288],[-8.6604496,41.1606826],[-8.6604323,41.1606663],[-8.6603452,41.1606909],[-8.6603011,41.1607034],[-8.6600701,41.1607918],[-8.6598341,41.1608761],[-8.6597659,41.1609051],[-8.6597092,41.1609252],[-8.6596063,41.1609685],[-8.6595394,41.1609964],[-8.6594622,41.1610232],[-8.6593285,41.1610744],[-8.6592406,41.1611078],[-8.6591928,41.161126],[-8.6590507,41.1611802],[-8.6589802,41.1611435],[-8.6589094,41.1611067],[-8.6588431,41.1610722],[-8.6585551,41.1609224],[-8.6583655,41.1609056],[-8.658516,41.1608477],[-8.6585432,41.1608373],[-8.6588369,41.1607244],[-8.6590843,41.1606264],[-8.6591218,41.1606117],[-8.6593072,41.1605422],[-8.659335,41.1605311],[-8.6597724,41.1603584],[-8.659798,41.1603483],[-8.6598858,41.1603113],[-8.6600544,41.1602456],[-8.660182,41.1601951],[-8.6602114,41.1601835],[-8.6602434,41.1601708],[-8.6602844,41.1601548]],[[-8.6613417,41.1597412],[-8.6614641,41.1596917],[-8.6620333,41.159469],[-8.6622082,41.1594007],[-8.6627336,41.1591934],[-8.6633347,41.158956],[-8.6634711,41.1589021],[-8.6635303,41.1588809],[-8.6635608,41.15887],[-8.6638555,41.1587529]],[[-8.6602844,41.1601548],[-8.6603263,41.1601382],[-8.6603509,41.1601284],[-8.6604793,41.1600775],[-8.660552,41.1600487],[-8.6607148,41.1599866],[-8.6607758,41.1599618],[-8.6613417,41.1597412]],[[-8.6638555,41.1587529],[-8.6643425,41.1585612],[-8.6647401,41.1584044],[-8.664766,41.1583943],[-8.6648058,41.1583788],[-8.6648382,41.1583661],[-8.6653394,41.1581706],[-8.6655439,41.1580908],[-8.6655787,41.1580773],[-8.6671946,41.1574408],[-8.6672245,41.157429],[-8.6673413,41.1573834],[-8.667382,41.1574398],[-8.6673991,41.157464],[-8.6679129,41.1581876],[-8.6679819,41.1581617],[-8.6680096,41.1582002],[-8.6681556,41.1584033],[-8.6681291,41.1584138],[-8.6679076,41.1585014],[-8.6677016,41.1585829],[-8.6676436,41.1586025],[-8.6675561,41.15864],[-8.6673581,41.1587211],[-8.6679046,41.1595459],[-8.6680014,41.159692],[-8.668019,41.1597187],[-8.6680685,41.1597933],[-8.6680844,41.1598161],[-8.6681005,41.1598394],[-8.668151,41.1599119],[-8.6681886,41.159966],[-8.6682081,41.1599941],[-8.6682264,41.1600204],[-8.6683561,41.1602069],[-8.6684198,41.1602985],[-8.6684433,41.1603323],[-8.668502,41.1604167],[-8.6685953,41.1605568],[-8.6681705,41.1606939],[-8.668055,41.1607341],[-8.6682048,41.1609458],[-8.6682528,41.1610264],[-8.6681338,41.1610629],[-8.6674522,41.1612922],[-8.6673765,41.1613173],[-8.667367,41.1612962],[-8.6673463,41.1612772],[-8.66732,41.1612692],[-8.6672695,41.161272],[-8.6672113,41.161306],[-8.6671838,41.161334],[-8.6671614,41.1613744],[-8.6671543,41.1614083],[-8.6671577,41.1614461],[-8.6670736,41.1614533],[-8.6668951,41.1614685],[-8.6668348,41.1614737],[-8.6661923,41.1615286],[-8.6661625,41.1615311],[-8.6658854,41.1615548],[-8.6657144,41.1615694],[-8.6656443,41.1615754],[-8.6655365,41.1615846],[-8.6653728,41.1615986],[-8.665198,41.1613271]]]}},{"type":"Feature","id":13851770,"properties":{"name":"Largo do Doutor Tito Fontes","wikidata":null,"gender":null,"source":null,"details":null},"geometry":{"type":"MultiLineString","coordinates":[[[-8.6079651,41.1533658],[-8.6079713,41.1533207],[-8.6079781,41.1532717],[-8.6079836,41.1532318],[-8.6079909,41.1531792],[-8.6079965,41.1531386],[-8.608002,41.1530985],[-8.6080077,41.1530579],[-8.6080191,41.1529751],[-8.6080252,41.1529308],[-8.6080308,41.1528904],[-8.6080361,41.152852],[-8.6080489,41.1527591],[-8.6080573,41.1526987],[-8.6080631,41.1526561],[-8.6080661,41.1526409],[-8.6081253,41.1526484],[-8.6081484,41.1526453],[-8.6081762,41.1526389],[-8.6081958,41.1526346],[-8.608448,41.1526952],[-8.6084873,41.1527067],[-8.6085303,41.1527193],[-8.6084587,41.1527983],[-8.6084153,41.1529045],[-8.6083804,41.1529899],[-8.6083605,41.1530387],[-8.60834,41.1530888],[-8.608318,41.1531426],[-8.6083003,41.1531859],[-8.6082791,41.1532378],[-8.6082379,41.1533386],[-8.6082833,41.1533493],[-8.608271,41.153384],[-8.6082628,41.1534022],[-8.6082492,41.1534431],[-8.6081274,41.1534303],[-8.6081089,41.1534037],[-8.6080365,41.1534017],[-8.6080228,41.1534228],[-8.607957,41.1534161],[-8.6079625,41.1533821],[-8.6079651,41.1533658]]]}},{"type":"Feature","id":14129487,"properties":{"name":"Levada","wikidata":null,"gender":null,"source":null,"details":null},"geometry":{"type":"MultiLineString","coordinates":[[[-8.5719971,41.1457637],[-8.572011,41.1457776],[-8.5719647,41.1458159],[-8.5717968,41.1457254],[-8.5718184,41.1456801],[-8.5718307,41.1456465],[-8.571823,41.1456198],[-8.5718785,41.1455653],[-8.571843,41.1454679]],[[-8.571843,41.1454679],[-8.5718884,41.1454232],[-8.5719603,41.1454473],[-8.5720171,41.145398],[-8.572071,41.1454359],[-8.5722497,41.1455966],[-8.5721367,41.1456313],[-8.5721481,41.1456836],[-8.5720649,41.1457057],[-8.5720772,41.1457265],[-8.5719971,41.1457637]]]}},{"type":"Feature","id":14169426,"properties":{"name":"Pra\u00e7a da Liberdade","wikidata":"Q6541071","gender":null,"source":null,"details":null},"geometry":{"type":"MultiLineString","coordinates":[[[-8.6114566,41.1467148],[-8.6115472,41.1462551],[-8.6115578,41.1461985],[-8.6115463,41.1461676],[-8.6115199,41.1461423],[-8.6114826,41.1461265],[-8.6114402,41.1461227],[-8.6113991,41.1461313],[-8.6113655,41.1461512],[-8.6113446,41.1461793],[-8.6113345,41.1462243],[-8.6112271,41.1466941],[-8.6112395,41.1467274],[-8.6112679,41.1467546],[-8.611308,41.1467716],[-8.6113311,41.1467743],[-8.6113537,41.1467757],[-8.6113979,41.1467664],[-8.6114341,41.146745],[-8.6114566,41.1467148]]]}},{"type":"Feature","id":16741891,"properties":{"name":"Bairro da Pasteleira","wikidata":"Q9643799","gender":null,"source":null,"details":null},"geometry":{"type":"MultiLineString","coordinates":[[[-8.6612038,41.152937],[-8.6613692,41.1529564],[-8.6614873,41.1530224],[-8.6617375,41.1533952],[-8.6617178,41.1534404],[-8.6617072,41.1534647],[-8.661296,41.1535155],[-8.6608768,41.1535604],[-8.6606545,41.1535809],[-8.6612811,41.1540744],[-8.6613818,41.1544277],[-8.6613114,41.1546138],[-8.6612398,41.1547871],[-8.6612479,41.1550944],[-8.6604356,41.1554142],[-8.660397,41.1554307],[-8.6592702,41.1558761]],[[-8.6592702,41.1558761],[-8.6591357,41.1559201],[-8.6590187,41.1559183],[-8.6588789,41.1558576],[-8.6583766,41.1551678],[-8.6583249,41.1551106],[-8.6581176,41.1548812],[-8.6578909,41.1546258],[-8.6577304,41.15446],[-8.657686,41.1543865],[-8.6576633,41.1542869],[-8.6576503,41.1541702],[-8.6576429,41.1540856],[-8.6577568,41.1540583],[-8.6578706,41.1540097],[-8.6580761,41.1539099],[-8.6582145,41.1538351],[-8.6583684,41.1537519],[-8.6585647,41.1536391],[-8.6587191,41.1535613],[-8.6591607,41.1533906],[-8.659542,41.1532422],[-8.6596974,41.153186],[-8.6599815,41.1531028],[-8.6607351,41.1529792],[-8.6612038,41.152937]]]}},{"type":"Feature","id":16741892,"properties":{"name":"Bairro de Casas Econ\u00f3micas Marechal Gomes da Costa","wikidata":"Q16496239","gender":"M","source":"wikidata","details":{"wikidata":"Q470961","person":true,"gender":"M","labels":{"en":{"language":"en","value":"Manuel Gomes da Costa"}},"descriptions":{"en":{"language":"en","value":"Portuguese general and politician (1863\u20131929)"}},"nicknames":[],"birth":1863,"death":1929,"sitelinks":{"enwiki":{"site":"enwiki","title":"Manuel Gomes da Costa","badges":[],"url":"https:\/\/en.wikipedia.org\/wiki\/Manuel_Gomes_da_Costa"}},"image":"General Manuel Gomes da Costa (1918) - Photographia Vasques.png"}},"geometry":{"type":"MultiLineString","coordinates":[[[-8.6593751,41.1560128],[-8.659368,41.1559843],[-8.6593635,41.1559538],[-8.6593747,41.1559299],[-8.6594003,41.1559043],[-8.6594415,41.1558825],[-8.6612363,41.1551744],[-8.6623501,41.1547339],[-8.6624078,41.1548247],[-8.6625191,41.1549901],[-8.6640493,41.1572236],[-8.6630081,41.1576163],[-8.6632137,41.1579327],[-8.6620019,41.1584009],[-8.6619087,41.1584387],[-8.6620231,41.1586031],[-8.6616227,41.1587609],[-8.6614969,41.1585536],[-8.6615731,41.1585228],[-8.6612548,41.1580613],[-8.6609602,41.1581763],[-8.6607675,41.1581305],[-8.6607919,41.1580632],[-8.6607074,41.1579591]],[[-8.6607074,41.1579591],[-8.6602208,41.1572658],[-8.6594168,41.1560866],[-8.6593751,41.1560128]]]}},{"type":"Feature","id":18738404,"properties":{"name":"Rua do Doutor Magalh\u00e3es Lemos","wikidata":null,"gender":null,"source":null,"details":null},"geometry":{"type":"MultiLineString","coordinates":[[[-8.6086641,41.1473966],[-8.6088112,41.1474292],[-8.6088598,41.1474393],[-8.6093157,41.1475342],[-8.6093531,41.1475418],[-8.6094253,41.1475558]],[[-8.6094253,41.1475558],[-8.6107246,41.1478048],[-8.6107859,41.1478154],[-8.6109422,41.1478426]]]}},{"type":"Feature","id":18990284,"properties":{"name":"Pra\u00e7a de Dom Jo\u00e3o I","wikidata":"Q10353455","gender":"M","source":"wikidata","details":{"wikidata":"Q201575","person":true,"gender":"M","labels":{"en":{"language":"en","value":"John I of Portugal"}},"descriptions":{"en":{"language":"en","value":"King of Portugal from 1385 to 1433"}},"nicknames":[],"birth":1357,"death":1433,"sitelinks":{"enwiki":{"site":"enwiki","title":"John I of Portugal","badges":[],"url":"https:\/\/en.wikipedia.org\/wiki\/John_I_of_Portugal"}},"image":"Anoniem - Koning Johan I van Portugal (1450-1500) - Lissabon Museu Nacional de Arte Antiga 19-10-2010 16-12-61.jpg"}},"geometry":{"type":"MultiLineString","coordinates":[[[-8.6086669,41.147787],[-8.6086803,41.1477981],[-8.6090773,41.1479397],[-8.6090974,41.1479417],[-8.6091175,41.1479367],[-8.6091363,41.1479296],[-8.6091484,41.1479205],[-8.6091674,41.1478911],[-8.6091739,41.1478807],[-8.6091898,41.1478859],[-8.6092682,41.1479115],[-8.6093789,41.1479409],[-8.6093879,41.1477894],[-8.6093998,41.1475882],[-8.6093044,41.1475695],[-8.6088465,41.1474796],[-8.608814,41.1474732],[-8.6087862,41.1474696],[-8.6087634,41.1474696],[-8.6087446,41.1474736],[-8.6087272,41.1474797],[-8.6087125,41.1474878],[-8.6087004,41.1474968],[-8.6086846,41.1475174],[-8.6086749,41.1475317],[-8.6085485,41.1477441],[-8.6086141,41.1477679],[-8.6086669,41.147787]],[[-8.6092682,41.1479115],[-8.6091898,41.1478859],[-8.6091739,41.1478807],[-8.6091674,41.1478911],[-8.6091484,41.1479205],[-8.6091363,41.1479296],[-8.6091175,41.1479367],[-8.6090974,41.1479417],[-8.6090773,41.1479397],[-8.6086803,41.1477981],[-8.6086669,41.147787],[-8.6086141,41.1477679],[-8.6085485,41.1477441],[-8.6085438,41.1477594],[-8.6085472,41.1477784],[-8.6085559,41.147792],[-8.6085742,41.1478042],[-8.6086675,41.1478385],[-8.6086773,41.1478228],[-8.6090928,41.1479668],[-8.60914,41.147982],[-8.6091973,41.1480053],[-8.6092558,41.148037],[-8.6093116,41.1480759],[-8.6092965,41.1480884],[-8.6093723,41.1481589],[-8.6093782,41.1479904],[-8.6093789,41.1479409],[-8.6092682,41.1479115]]]}},{"type":"Feature","id":19058107,"properties":{"name":"Rua de S\u00e3o Sebasti\u00e3o","wikidata":null,"gender":null,"source":null,"details":null},"geometry":{"type":"MultiLineString","coordinates":[[[-8.6121399,41.142904],[-8.6122783,41.1428141]],[[-8.6121297,41.1429148],[-8.6121399,41.142904]],[[-8.6120869,41.1429604],[-8.6121297,41.1429148]],[[-8.6113133,41.1433054],[-8.6113888,41.1432621],[-8.6117176,41.143149],[-8.6118269,41.143057],[-8.6120869,41.1429604]],[[-8.6122881,41.1428111],[-8.6123046,41.1428183]],[[-8.6122881,41.1428111],[-8.6122973,41.1427983]],[[-8.6123216,41.1428024],[-8.6123045,41.1427964]],[[-8.6123781,41.1427831],[-8.6123216,41.1428024]],[[-8.6123224,41.1426462],[-8.6123299,41.1426645],[-8.6123781,41.1427831]],[[-8.6122635,41.1425088],[-8.6123081,41.1426108],[-8.6123151,41.1426281],[-8.6123224,41.1426462]],[[-8.6123117,41.1428163],[-8.6123216,41.1428024]]]}},{"type":"Feature","id":19092924,"properties":{"name":"Cais da Ribeira","wikidata":null,"gender":null,"source":null,"details":null},"geometry":{"type":"MultiLineString","coordinates":[[[-8.6114957,41.1404361],[-8.6115155,41.1404341],[-8.6115786,41.1404268],[-8.6118281,41.1404009],[-8.6118367,41.1404317],[-8.6118442,41.1404588],[-8.6123681,41.1403976],[-8.612374,41.140363],[-8.6123795,41.1403305],[-8.6125724,41.1403098],[-8.6125975,41.1403075],[-8.6126146,41.1403055],[-8.6126205,41.1403373],[-8.6126302,41.1403899],[-8.6126387,41.1404356],[-8.6126729,41.1404479],[-8.6127142,41.1404627],[-8.6127249,41.1405289],[-8.6126831,41.1405298],[-8.6126588,41.1405303],[-8.6126345,41.1405308],[-8.6126224,41.140531],[-8.6126102,41.1405313],[-8.6125859,41.1405318],[-8.612576,41.140532],[-8.612566,41.1405322],[-8.6125073,41.1405334],[-8.6125074,41.1405585],[-8.61248,41.1405592],[-8.612471,41.1405594],[-8.6121722,41.1405674],[-8.6118439,41.1405871],[-8.6114173,41.1406473],[-8.6113326,41.1406607],[-8.6112846,41.1406685],[-8.611284,41.1406662],[-8.6112086,41.1406784],[-8.6112092,41.1406806],[-8.6110515,41.1407054],[-8.6105173,41.1407852],[-8.6104998,41.1407883],[-8.6104952,41.1407681],[-8.6104943,41.1407618],[-8.6104927,41.1407468],[-8.6104887,41.140719],[-8.6105012,41.1407171],[-8.6105036,41.1407233],[-8.610581,41.1407116],[-8.6110037,41.1406486],[-8.6111919,41.140619],[-8.6111843,41.1405758],[-8.6111748,41.1405333],[-8.6114422,41.1405052],[-8.6115063,41.1404985],[-8.6115021,41.140476],[-8.6114957,41.1404361]]]}},{"type":"Feature","id":19125200,"properties":{"name":"Largo Padre Am\u00e9rico","wikidata":null,"gender":null,"source":null,"details":null},"geometry":{"type":"MultiLineString","coordinates":[[[-8.6126405,41.141129],[-8.6125997,41.1411043],[-8.612527,41.1410621],[-8.6125205,41.1410686],[-8.6125163,41.1410664],[-8.6124606,41.1410844]],[[-8.612683,41.1410694],[-8.6126954,41.1410762],[-8.6126405,41.141129]],[[-8.6123924,41.141046],[-8.6123816,41.1410479],[-8.612377,41.1410361],[-8.6123681,41.1410131],[-8.6123627,41.1409993],[-8.6123862,41.1410024],[-8.6124136,41.1409981],[-8.6124659,41.1409824],[-8.6124771,41.1409794],[-8.6124895,41.14098],[-8.612504,41.1409845],[-8.612577,41.1410215],[-8.612683,41.1410694]],[[-8.6124027,41.1410995],[-8.6124098,41.1410979],[-8.6123968,41.1410606],[-8.6123924,41.141046]],[[-8.6124606,41.1410844],[-8.6124236,41.1410962],[-8.6124253,41.1411009],[-8.6124271,41.1411056],[-8.6124055,41.14111],[-8.6124027,41.1410995]]]}},{"type":"Feature","id":19127155,"properties":{"name":"Pra\u00e7a da Ribeira","wikidata":"Q7322292","gender":null,"source":null,"details":null},"geometry":{"type":"MultiLineString","coordinates":[[[-8.6127142,41.1404627],[-8.6127249,41.1405289],[-8.612727,41.1405454],[-8.6127313,41.1405788],[-8.6127341,41.1405997],[-8.6127367,41.1406164],[-8.6127461,41.1406136],[-8.6127549,41.1406109],[-8.6128186,41.1406008],[-8.6128454,41.1406655],[-8.6128681,41.1407309],[-8.6128784,41.1407604],[-8.6128921,41.1407965],[-8.6129046,41.140829],[-8.6129223,41.1408851],[-8.6129395,41.1409489],[-8.6129531,41.1409446],[-8.6129766,41.1409389],[-8.6129752,41.1409139],[-8.6129616,41.1408809],[-8.6129701,41.1408711],[-8.612984,41.1408606],[-8.613013,41.1408523],[-8.6130306,41.1408513],[-8.6130497,41.1408533],[-8.6130685,41.1408591],[-8.613084,41.1408693],[-8.6130813,41.140902],[-8.6130944,41.1409236],[-8.6131171,41.14092],[-8.6131583,41.1409067],[-8.6132046,41.1408928],[-8.6132138,41.1408899],[-8.6132233,41.1408867],[-8.6132225,41.1408842],[-8.6131672,41.1407171],[-8.6131456,41.1406396],[-8.6131624,41.140637],[-8.6131534,41.1406061],[-8.6131455,41.1405789],[-8.6131129,41.1404456],[-8.6131104,41.1404356],[-8.6131104,41.1404354],[-8.6131062,41.1404186],[-8.6130525,41.1404246],[-8.6128396,41.1404486],[-8.612759,41.1404577],[-8.6127142,41.1404627]]]}},{"type":"Feature","id":19309633,"properties":{"name":"Bairro do Outeiro","wikidata":null,"gender":null,"source":null,"details":null},"geometry":{"type":"MultiLineString","coordinates":[[[-8.5974401,41.1723398],[-8.5973272,41.1723773],[-8.5970509,41.1724692],[-8.5968053,41.1725508],[-8.5965904,41.1726222],[-8.5965753,41.172632],[-8.5965617,41.172655],[-8.5965582,41.1726688],[-8.5965599,41.1726881],[-8.5965748,41.1727349],[-8.5967975,41.1730947],[-8.5968858,41.1732429],[-8.5969313,41.1733192],[-8.5969858,41.1734107],[-8.5970524,41.1735223],[-8.5971277,41.1736487],[-8.5971589,41.1737009],[-8.5972024,41.1737745],[-8.5972955,41.1738819],[-8.5974484,41.1740339],[-8.5980286,41.1746998],[-8.5980477,41.1747239],[-8.5980646,41.1747394],[-8.59809,41.1747633],[-8.5981207,41.1747811],[-8.598183,41.1748041],[-8.5982464,41.1748185],[-8.5983476,41.1748197],[-8.5988494,41.1747558],[-8.5988838,41.1747406],[-8.5988921,41.174713],[-8.5988684,41.1746725],[-8.5982136,41.1735531],[-8.5980224,41.1732285],[-8.5979572,41.1731171],[-8.5975361,41.1724039],[-8.5975092,41.1723584],[-8.5974881,41.1723464],[-8.5974674,41.1723368],[-8.5974401,41.1723398]],[[-8.5964488,41.1725759],[-8.5964705,41.1725746],[-8.5964903,41.1725691],[-8.5965171,41.1725608],[-8.5965715,41.1725433],[-8.5966485,41.1725158],[-8.5974132,41.1722522],[-8.5978794,41.1720884],[-8.5980441,41.1720364],[-8.5980676,41.1720118],[-8.5980707,41.171997],[-8.5979195,41.1717621],[-8.59775,41.1717912],[-8.5975049,41.1718332],[-8.5970662,41.1719085],[-8.5970522,41.1719109],[-8.5967913,41.1719617],[-8.5966755,41.1719842],[-8.5966251,41.171994],[-8.5965917,41.1720031],[-8.5965086,41.1720257],[-8.5964139,41.1720516],[-8.5962626,41.1720928],[-8.5962578,41.1720941],[-8.5961731,41.1721172],[-8.5959916,41.1722056],[-8.5959507,41.1722752],[-8.5960014,41.1723556],[-8.596023,41.1723667],[-8.5960402,41.1723767],[-8.596384,41.1725515],[-8.5964183,41.172567],[-8.5964379,41.1725742],[-8.5964488,41.1725759]]]}},{"type":"Feature","id":19484850,"properties":{"name":"Ribeira","wikidata":"Q385283","gender":null,"source":null,"details":null},"geometry":{"type":"MultiLineString","coordinates":[[[-8.6161372,41.1400931],[-8.6160741,41.1404762],[-8.6134572,41.1413823]],[[-8.6134572,41.1413823],[-8.6133877,41.1414267],[-8.6130345,41.1415401],[-8.6128892,41.1415451],[-8.6129267,41.1414152],[-8.6125243,41.1411789],[-8.6123675,41.1411906],[-8.6121749,41.1412077],[-8.6116513,41.1413726],[-8.610767,41.1412257],[-8.6104938,41.1411491],[-8.6102557,41.1409964],[-8.6097971,41.140801],[-8.6096995,41.1405134]],[[-8.6159221,41.1400092],[-8.6155889,41.1399735],[-8.6154247,41.1399681],[-8.6152467,41.1399848],[-8.6152406,41.1399637],[-8.6152182,41.1399672],[-8.6152136,41.1399553],[-8.6150324,41.1399915],[-8.615037,41.1400041],[-8.6146669,41.1400985],[-8.6146288,41.1400875],[-8.6145939,41.1400602],[-8.6144253,41.1400552],[-8.6138764,41.1400607],[-8.6136071,41.1400907],[-8.6136048,41.1401826],[-8.6136042,41.140212],[-8.613588,41.1402418],[-8.6135474,41.1402701],[-8.6134517,41.1402851],[-8.6133896,41.1402944],[-8.6133754,41.1402307],[-8.6132773,41.1402401],[-8.6130786,41.1402563],[-8.6128048,41.1402787],[-8.6127944,41.1402598],[-8.6127676,41.1402528],[-8.6127617,41.1402256],[-8.6127171,41.1402295],[-8.6127192,41.1402583],[-8.6126938,41.1402724],[-8.6126924,41.1402919],[-8.6126137,41.1403011],[-8.6123742,41.1403265],[-8.6123628,41.1403937],[-8.6118489,41.1404537],[-8.6118328,41.1403959],[-8.6114232,41.1404384],[-8.6114252,41.1404483],[-8.6111723,41.1404741],[-8.6111303,41.1404823],[-8.6111011,41.1405088],[-8.6110966,41.1405371],[-8.6106647,41.1405865],[-8.6103359,41.1405995],[-8.6102922,41.1405953],[-8.6102276,41.14057],[-8.6102395,41.1405545],[-8.6102014,41.1405063],[-8.610162,41.1405174],[-8.6101562,41.1405127],[-8.6101714,41.1405003],[-8.610149,41.140476],[-8.6100853,41.1405025],[-8.6100389,41.1404943],[-8.6100349,41.1404769],[-8.6099856,41.1404785],[-8.6099732,41.1404934],[-8.6097501,41.1404984],[-8.6096995,41.1405134]],[[-8.6161372,41.1400931],[-8.6160608,41.1400626],[-8.6159221,41.1400092]]]}},{"type":"Feature","id":20956787,"properties":{"name":"Cais dos Guindais","wikidata":null,"gender":null,"source":null,"details":null},"geometry":{"type":"MultiLineString","coordinates":[[[-8.6111748,41.1405333],[-8.6111919,41.140619],[-8.6110037,41.1406486],[-8.610581,41.1407116],[-8.6105791,41.1407053],[-8.6105772,41.140699],[-8.610483,41.1407133],[-8.6104687,41.1407155],[-8.610374,41.1407299],[-8.6102746,41.1407451],[-8.6100865,41.1407737],[-8.6102893,41.1407062],[-8.610331,41.1406923],[-8.6103405,41.1406921],[-8.6103991,41.1406936],[-8.6103904,41.1406719],[-8.6103815,41.1406494],[-8.6103288,41.1406489],[-8.6103189,41.1406486],[-8.6102726,41.1406481],[-8.6100519,41.1406426],[-8.6100063,41.1406498],[-8.6099955,41.1406108],[-8.6099611,41.1406171],[-8.6099519,41.1405868],[-8.6099504,41.1405819],[-8.6099431,41.1405578],[-8.6099656,41.140552],[-8.6099695,41.140551],[-8.6099784,41.1405458],[-8.6099841,41.1405384],[-8.6099855,41.1405301],[-8.6099826,41.140522],[-8.6100358,41.1405203],[-8.6101581,41.1405416],[-8.6102193,41.1405718],[-8.6102904,41.1405997],[-8.6103263,41.1406071],[-8.6105537,41.1406071],[-8.6106669,41.1405972],[-8.6111025,41.140541],[-8.6111268,41.1405384],[-8.6111748,41.1405333]]]}}]}